[{"OBJECT_NAME":"STARLINK-31698","OBJECT_ID":"2024-062F","EPOCH":"2026-03-09T19:58:40.732032","MEAN_MOTION":15.30183968,"ECCENTRICITY":0.00012569,"INCLINATION":53.1603,"RA_OF_ASC_NODE":254.9886,"ARG_OF_PERICENTER":88.3549,"MEAN_ANOMALY":271.7596,"EPHEMERIS_TYPE":0,"CLASSIFICATION_TYPE":"U","NORAD_CAT_ID":59379,"ELEMENT_SET_NO":999,"REV_AT_EPOCH":10965,"BSTAR":9.91931e-6,"MEAN_MOTION_DOT":-6.5e-7,"MEAN_MOTION_DDOT":0},{"OBJECT_NAME":"GEOSCAN 5 (RS92S5)","OBJECT_ID":"2025-155R","EPOCH":"2026-03-09T22:01:07.273920","MEAN_MOTION":15.30265233,"ECCENTRICITY":0.00070849,"INCLINATION":97.4462,"RA_OF_ASC_NODE":37.7456,"ARG_OF_PERICENTER":154.5846,"MEAN_ANOMALY":205.5745,"EPHEMERIS_TYPE":0,"CLASSIFICATION_TYPE":"U","NORAD_CAT_ID":64891,"ELEMENT_SET_NO":999,"REV_AT_EPOCH":6562,"BSTAR":0.00068639307,"MEAN_MOTION_DOT":0.00020065,"MEAN_MOTION_DDOT":0}]
